H1 CPF 01  gfz 2022 04 09 12  5992 tandemx   
H2 1003001  6202 36605    2022 04 09 12 59 42 2022 04 14 00 00 42   120 1 1  0 0 0
H9
10 0 59678  63342.000000  0    6639277.562    517442.948   1756425.965
10 0 59678  63462.000000  0    6362741.341    317617.693   2613097.932
10 0 59678  63582.000000  0    5971450.118    118082.194   3423751.069
10 0 59678  63702.000000  0    5472309.004    -75726.643   4174115.624
10 0 59678  63822.000000  0    4874212.281   -258610.791   4850994.643
10 0 59678  63942.000000  0    4187876.004   -425736.647   5442498.545
10 0 59678  64062.000000  0    3425634.325   -572750.355   5938251.812
10 0 59678  64182.000000  0    2601209.387   -695879.084   6329570.280
10 0 59678  64302.000000  0    1729458.026   -792018.105   6609607.545
10 0 59678  64422.000000  0     826099.926   -858801.447   6773470.071
10 0 59678  64542.000000  0     -92569.251   -894654.871   6818297.291
10 0 59678  64662.000000  0   -1009972.001   -898830.160   6743307.136
10 0 59678  64782.000000  0   -1909546.945   -871420.476   6549808.200
10 0 59678  64902.000000  0   -2775046.209   -813355.808   6241177.930
10 0 59678  65022.000000  0   -3590828.205   -726379.076   5822808.557
10 0 59678  65142.000000  0   -4342143.421   -613003.481   5302019.723
10 0 59678  65262.000000  0   -5015407.223   -476452.033   4687936.695
10 0 59678  65382.000000  0   -5598453.199   -320579.697   3991334.963
10 0 59678  65502.000000  0   -6080761.723   -149779.905   3224453.997
10 0 59678  65622.000000  0   -6453659.060     31122.779   2400784.119
10 0 59678  65742.000000  0   -6710484.091    216991.991   1534827.925
10 0 59678  65862.000000  0   -6846716.059    402507.028    641839.748
10 0 59678  65982.000000  0   -6860059.874    582295.575   -262450.819
10 0 59678  66102.000000  0   -6750486.067    751068.782  -1162125.358
10 0 59678  66222.000000  0   -6520223.995    903754.644  -2041365.533
10 0 59678  66342.000000  0   -6173711.708   1035626.243  -2884737.477
10 0 59678  66462.000000  0   -5717502.410   1142422.749  -3677470.137
10 0 59678  66582.000000  0   -5160126.673   1220458.497  -4405716.310
10 0 59678  66702.000000  0   -4511919.851   1266718.347  -5056791.907
10 0 59678  66822.000000  0   -3784818.127   1278937.196  -5619390.514
10 0 59678  66942.000000  0   -2992129.430   1255662.168  -6083770.103
10 0 59678  67062.000000  0   -2148283.980   1196295.791  -6441910.719
10 0 59678  67182.000000  0   -1268569.089   1101121.379  -6687641.636
10 0 59678  67302.000000  0    -368853.264    971309.114  -6816735.859
10 0 59678  67422.000000  0     534693.953    808903.066  -6826973.760
10 0 59678  67542.000000  0    1425884.277    616789.843  -6718178.773
10 0 59678  67662.000000  0    2288795.222    398648.296  -6492221.363
10 0 59678  67782.000000  0    3108048.413    158881.692  -6152989.940
10 0 59678  67902.000000  0    3869080.047    -97466.785  -5706330.724
10 0 59678  68022.000000  0    4558397.477   -364814.951  -5159956.354
10 0 59678  68142.000000  0    5163821.232   -637156.271  -4523325.438
10 0 59678  68262.000000  0    5674707.639   -908187.463  -3807489.584
10 0 59678  68382.000000  0    6082145.353  -1171446.147  -3024910.736
10 0 59678  68502.000000  0    6379122.428  -1420456.233  -2189250.926
10 0 59678  68622.000000  0    6560659.741  -1648877.601  -1315136.760
10 0 59678  68742.000000  0    6623905.905  -1850656.176   -417902.410
10 0 59678  68862.000000  0    6568191.185  -2020170.784    486683.351
10 0 59678  68982.000000  0    6395038.293  -2152373.286   1382701.728
10 0 59678  69102.000000  0    6108128.176  -2242917.525   2254372.908
10 0 59678  69222.000000  0    5713222.373  -2288274.693   3086343.105
10 0 59678  69342.000000  0    5218043.130  -2285830.575   3863963.236
10 0 59678  69462.000000  0    4632114.573  -2233963.378   4573551.402
10 0 59678  69582.000000  0    3966572.280  -2132099.738   5202635.294
10 0 59678  69702.000000  0    3233943.489  -1980748.926   5740172.624
10 0 59678  69822.000000  0    2447901.748  -1781513.364   6176741.686
10 0 59678  69942.000000  0    1623005.537  -1537075.865   6504700.783
10 0 59678  70062.000000  0     774424.210  -1251164.650   6718316.315
10 0 59678  70182.000000  0     -82343.679   -928495.797   6813857.346
10 0 59678  70302.000000  0    -931753.666   -574694.479   6789655.685
10 0 59678  70422.000000  0   -1758496.101   -196197.001   6646132.734
10 0 59678  70542.000000  0   -2547770.844    199865.947   6385792.676
10 0 59678  70662.000000  0   -3285551.829    605802.788   6013182.257
10 0 59678  70782.000000  0   -3958838.210   1013508.971   5534817.015
10 0 59678  70902.000000  0   -4555888.337   1414626.951   4959073.643
10 0 59678  71022.000000  0   -5066431.200   1800716.255   4296048.874
10 0 59678  71142.000000  0   -5481851.235   2163429.950   3557386.339
10 0 59678  71262.000000  0   -5795341.569   2494693.341   2756074.115
10 0 59678  71382.000000  0   -6002023.532   2786881.297   1906216.535
10 0 59678  71502.000000  0   -6099029.622   3032990.245   1022782.823
10 0 59678  71622.000000  0   -6085545.767   3226800.099    121336.144
10 0 59678  71742.000000  0   -5962811.157   3363021.419   -782248.763
10 0 59678  71862.000000  0   -5734077.244   3437424.036  -1672073.917
10 0 59678  71982.000000  0   -5404526.532   3446944.665  -2532507.250
10 0 59678  72102.000000  0   -4981151.040   3389769.582  -3348464.513
10 0 59678  72222.000000  0   -4472596.809   3265391.157  -4105677.340
10 0 59678  72342.000000  0   -3888978.108   3074637.045  -4790941.726
10 0 59678  72462.000000  0   -3241667.773   2819672.268  -5392343.407
10 0 59678  72582.000000  0   -2543069.312   2503974.832  -5899455.777
10 0 59678  72702.000000  0   -1806375.686   2132286.551  -6303511.295
10 0 59678  72822.000000  0   -1045317.550   1710538.543  -6597541.424
10 0 59678  72942.000000  0    -273909.547   1245754.950  -6776484.829
10 0 59678  73062.000000  0     493802.970    745935.961  -6837264.803
10 0 59678  73182.000000  0    1243992.692    219922.868  -6778837.456
10 0 59678  73302.000000  0    1963294.829   -322755.271  -6602208.220
10 0 59678  73422.000000  0    2639039.202   -872049.818  -6310415.346
10 0 59678  73542.000000  0    3259469.810  -1417573.672  -5908483.790
10 0 59678  73662.000000  0    3813947.588  -1948792.261  -5403347.384
10 0 59678  73782.000000  0    4293135.456  -2455223.836  -4803741.411
10 0 59678  73902.000000  0    4689160.503  -2926645.419  -4120062.104
10 0 59678  74022.000000  0    4995749.595  -3353298.812  -3364196.590
10 0 59678  74142.000000  0    5208337.365  -3726093.243  -2549324.728
10 0 59678  74262.000000  0    5324142.898  -4036800.484  -1689693.621
10 0 59678  74382.000000  0    5342211.510  -4278236.937   -800369.376
10 0 59678  74502.000000  0    5263420.900  -4444428.770    103029.838
10 0 59678  74622.000000  0    5090450.265  -4530755.658   1004614.348
10 0 59678  74742.000000  0    4827711.734  -4534067.372   1888511.340
10 0 59678  74862.000000  0    4481246.740  -4452770.592   2739153.280
10 0 59678  74982.000000  0    4058590.508  -4286883.709   3541559.876
10 0 59678  75102.000000  0    3568607.757  -4038059.566   4281608.293
10 0 59678  75222.000000  0    3021302.854  -3709574.376   4946285.996
10 0 59678  75342.000000  0    2427610.977  -3306282.981   5523919.915
10 0 59678  75462.000000  0    1799175.462  -2834543.486   6004379.971
10 0 59678  75582.000000  0    1148114.876  -2302111.576   6379252.115
10 0 59678  75702.000000  0     486786.813  -1718008.898   6641979.438
10 0 59678  75822.000000  0    -172447.974  -1092367.322   6787970.821
10 0 59678  75942.000000  0    -817456.073   -436251.127   6814676.297
10 0 59678  76062.000000  0   -1436553.698    238539.161   6721628.433
10 0 59678  76182.000000  0   -2018717.669    919678.606   6510450.051
10 0 59678  76302.000000  0   -2553781.451   1594542.179   6184827.746
10 0 59678  76422.000000  0   -3032613.543   2250437.974   5750451.633
10 0 59678  76542.000000  0   -3447275.724   2874846.424   5214922.422
10 0 59678  76662.000000  0   -3791158.875   3455661.445   4587624.410
10 0 59678  76782.000000  0   -4059093.084   3981428.328   3879566.320
10 0 59678  76902.000000  0   -4247429.695   4441574.741   3103191.897
10 0 59678  77022.000000  0   -4354093.139   4826629.057   2272161.544
10 0 59678  77142.000000  0   -4378599.920   5128419.790   1401109.017
10 0 59678  77262.000000  0   -4322045.837   5340251.197    505378.864
10 0 59678  77382.000000  0   -4187061.798   5457051.647   -399250.551
10 0 59678  77502.000000  0   -3977737.504   5475491.279  -1296854.740
10 0 59678  77622.000000  0   -3699514.446   5394061.801  -2171654.260
10 0 59678  77742.000000  0   -3359051.705   5213119.554  -3008299.146
10 0 59678  77862.000000  0   -2964069.256   4934891.052  -3792143.646
10 0 59678  77982.000000  0   -2523173.070   4563439.695  -4509503.244
10 0 59678  78102.000000  0   -2045666.693   4104597.607  -5147889.558
10 0 59678  78222.000000  0   -1541354.945   3565866.062  -5696219.944
10 0 59678  78342.000000  0   -1020343.314   2956285.348  -6145001.683
10 0 59678  78462.000000  0    -492836.555   2286276.000  -6486485.879
10 0 59678  78582.000000  0      31058.462   1567457.079  -6714788.991
10 0 59678  78702.000000  0     541521.522    812444.764  -6825984.080
10 0 59678  78822.000000  0    1029198.693     34634.184  -6818161.684
10 0 59678  78942.000000  0    1485369.931   -752033.974  -6691458.642
10 0 59678  79062.000000  0    1902100.593  -1533317.217  -6448054.437
10 0 59678  79182.000000  0    2272376.621  -2294922.007  -6092138.013
10 0 59678  79302.000000  0    2590221.696  -3022759.164  -5629844.287
10 0 59678  79422.000000  0    2850795.170  -3703203.102  -5069160.525
10 0 59678  79542.000000  0    3050468.082  -4323348.447  -4419797.667
10 0 59678  79662.000000  0    3186874.462  -4871256.086  -3693032.005
10 0 59678  79782.000000  0    3258939.326  -5336188.519  -2901520.465
99
